ONEWEB-0367             
1 49293U 21090Q   26171.34495661  .00000017  00000+0  99746-5 0  9991
2 49293  87.9198 273.8111 0001946 105.8396 254.2952 13.20771430230244
ONEWEB-0368             
1 49294U 21090R   26171.31885024  .00000107  00000+0  23205-3 0  9990
2 49294  87.9185 273.8263 0001377  88.5175 271.6116 13.20770338231397
ONEWEB-0369             
1 49295U 21090S   26171.44209463  .00000033  00000+0  50165-4 0  9996
2 49295  87.9172 304.3252 0001800  99.8048 260.3288 13.19725370226840
ONEWEB-0370             
1 49296U 21090T   26171.27844855  .00000037  00000+0  59675-4 0  9997
2 49296  87.9197 273.8240 0002240 104.5863 255.5519 13.20770960230275
ONEWEB-0371             
1 49297U 21090U   26171.44997500  .00001085  00000+0  26770-2 0  9995
2 49297  87.9180 304.3165 0001888 102.7173 257.4171 13.19734089226882
ONEWEB-0372             
1 49298U 21090V   26171.34405028  .00002087  00000+0  51025-2 0  9998
2 49298  87.9211 273.8132 0001687 100.7499 259.3824 13.20749538230257
ONEWEB-0373             
1 49299U 21090W   26171.29360314  .00000060  00000+0  11631-3 0  9990
2 49299  87.9195 273.8230 0002086  99.6854 260.4515 13.20771906231438
ONEWEB-0374             
1 49300U 21090X   26171.31568003  .00000306  00000+0  79067-3 0  9991
2 49300  87.8972 289.0738 0002078  83.7723 276.3643 13.14503417227970
ONEWEB-0375             
1 49301U 21090Y   26171.28182275  .00000036  00000+0  57149-4 0  9999
2 49301  87.9197 273.8170 0002234  86.1451 273.9938 13.20771750230935
ONEWEB-0376             
1 49302U 21090Z   26171.44840625  .00000050  00000+0  92619-4 0  9995
2 49302  87.9179 304.3166 0001713 103.1521 256.9803 13.19725524226887
ONEWEB-0377             
1 49303U 21090AA  26171.34423972 -.00001905  00000+0 -47184-2 0  9994
2 49303  87.9197 273.8062 0002338  97.6370 262.5029 13.20783880230931
ONEWEB-0378             
1 49304U 21090AB  26171.28868912  .00000080  00000+0  16427-3 0  9993
2 49304  87.9191 273.8224 0001962  96.5067 263.6290 13.20770701230197
ONEWEB-0379             
1 49305U 21090AC  26171.31091957  .00000260  00000+0  66796-3 0  9999
2 49305  87.8967 289.0853 0001904  97.0243 263.1103 13.14503076227975
ONEWEB-0380             
1 49306U 21090AD  26171.36944012  .00000063  00000+0  12544-3 0  9997
2 49306  87.9174 304.3373 0002071  96.8283 263.3085 13.19725244226846
ONEWEB-0381             
1 49307U 21090AE  26171.34074120 -.00000030  00000+0 -10486-3 0  9999
2 49307  87.9199 273.8119 0002030  92.3344 267.8022 13.20771965230248
ONEWEB-0382             
1 49308U 21090AF  26171.32726722  .00000073  00000+0  14689-3 0  9994
2 49308  87.9197 273.8088 0001960  91.5678 268.5680 13.20770393230235
ONEWEB-0383             
1 49309U 21090AG  26171.38068721  .00000125  00000+0  30216-3 0  9991
2 49309  87.8971 289.0632 0001883  98.3478 261.7865 13.14501838228018
ONEWEB-0384             
1 49310U 21090AH  26171.31581257  .00000070  00000+0  14078-3 0  9997
2 49310  87.9200 273.8548 0001879  87.0097 273.1251 13.20812320230242
ONEWEB-0385             
1 49311U 21090AJ  26171.32053660  .00000028  00000+0  37078-4 0  9990
2 49311  87.9196 273.8155 0001976  94.4536 265.6823 13.20773083230219
ONEWEB-0386             
1 49312U 21090AK  26171.33737606  .00000006  00000+0 -17587-4 0  9991
2 49312  87.9201 273.8031 0001895  93.0092 267.1258 13.20771864230238
ONEWEB-0387             
1 49313U 21090AL  26171.32222172  .00000025  00000+0  28717-4 0  9995
2 49313  87.9185 273.8279 0002285  94.4378 265.7017 13.20772555230235
ONEWEB-0388             
1 49314U 21090AM  26171.36470064  .00000052  00000+0  98614-4 0  9998
2 49314  87.9174 304.3363 0001853  94.8027 265.3317 13.19725363226836
ONEWEB-0389             
1 50469U 21132A   26170.93242022  .00000023  00000+0  25174-4 0  9990
2 50469  87.9130   5.3217 0002143  81.8061 278.3314 13.17649164218445
ONEWEB-0390             
1 50470U 21132B   26170.93410745  .00000037  00000+0  63360-4 0  9995
2 50470  87.9131   5.3224 0002013  93.7842 266.3520 13.17649559218445
ONEWEB-0391             
1 50471U 21132C   26171.46734906  .00000081  00000+0  17517-3 0  9994
2 50471  87.9132   5.2258 0002642  82.4452 277.6979 13.17649342218514
ONEWEB-0392             
1 50472U 21132D   26171.26992027 -.00001194  00000+0 -31094-2 0  9996
2 50472  87.9142   5.2339 0002371  85.7436 274.3966 13.17655295218528
ONEWEB-0393             
1 50473U 21132E   26170.94169769 -.00000003  00000+0 -41998-4 0  9994
2 50473  87.9134   5.3158 0001993  84.5803 275.5556 13.17650394218471
ONEWEB-0394             
1 50474U 21132F   26171.43668346  .00000036  00000+0  58519-4 0  9996
2 50474  87.9174 334.7953 0001789  88.9922 271.1415 13.18687610222025
ONEWEB-0395             
1 50475U 21132G   26171.29520181 -.00000056  00000+0 -19309-3 0  9992
2 50475  87.8889  20.4484 0002099  86.3514 273.7854 13.11413200216124
ONEWEB-0396             
1 50476U 21132H   26171.35405476  .00000020  00000+0  18568-4 0  9995
2 50476  87.9173 334.8245 0001916  88.2490 271.8862 13.18684926222059
ONEWEB-0397             
1 50477U 21132J   26171.44510782  .00000013  00000+0  14688-5 0  9995
2 50477  87.9172 334.8064 0001818  85.9058 274.2282 13.18685646222045
