OBJECT_NAME,OBJECT_ID,EPOCH,MEAN_MOTION,ECCENTRICITY,INCLINATION,RA_OF_ASC_NODE,ARG_OF_PERICENTER,MEAN_ANOMALY,EPHEMERIS_TYPE,CLASSIFICATION_TYPE,NORAD_CAT_ID,ELEMENT_SET_NO,REV_AT_EPOCH,BSTAR,MEAN_MOTION_DOT,MEAN_MOTION_DDOT
ONEWEB-0367,2021-090Q,2026-06-20T08:16:44.251104,13.20771430,.0001946,87.9198,273.8111,105.8396,254.2952,0,U,49293,999,23024,.99746E-5,.17E-6,0
ONEWEB-0368,2021-090R,2026-06-20T07:39:08.660736,13.20770338,.0001377,87.9185,273.8263,88.5175,271.6116,0,U,49294,999,23139,.23205E-3,.107E-5,0
ONEWEB-0369,2021-090S,2026-06-20T10:36:36.976032,13.19725370,.00018,87.9172,304.3252,99.8048,260.3288,0,U,49295,999,22684,.50165E-4,.33E-6,0
ONEWEB-0370,2021-090T,2026-06-20T06:40:57.954720,13.20770960,.000224,87.9197,273.8240,104.5863,255.5519,0,U,49296,999,23027,.59675E-4,.37E-6,0
ONEWEB-0371,2021-090U,2026-06-20T10:47:57.840000,13.19734089,.0001888,87.9180,304.3165,102.7173,257.4171,0,U,49297,999,22688,.2677E-2,.1085E-4,0
ONEWEB-0372,2021-090V,2026-06-20T08:15:25.944192,13.20749538,.0001687,87.9211,273.8132,100.7499,259.3824,0,U,49298,999,23025,.51025E-2,.2087E-4,0
ONEWEB-0373,2021-090W,2026-06-20T07:02:47.311296,13.20771906,.0002086,87.9195,273.8230,99.6854,260.4515,0,U,49299,999,23143,.11631E-3,.6E-6,0
ONEWEB-0374,2021-090X,2026-06-20T07:34:34.754592,13.14503417,.0002078,87.8972,289.0738,83.7723,276.3643,0,U,49300,999,22797,.79067E-3,.306E-5,0
ONEWEB-0375,2021-090Y,2026-06-20T06:45:49.485600,13.20771750,.0002234,87.9197,273.8170,86.1451,273.9938,0,U,49301,999,23093,.57149E-4,.36E-6,0
ONEWEB-0376,2021-090Z,2026-06-20T10:45:42.300000,13.19725524,.0001713,87.9179,304.3166,103.1521,256.9803,0,U,49302,999,22688,.92619E-4,.5E-6,0
ONEWEB-0377,2021-090AA,2026-06-20T08:15:42.311808,13.20783880,.0002338,87.9197,273.8062,97.6370,262.5029,0,U,49303,999,23093,-.47184E-2,-.1905E-4,0
ONEWEB-0378,2021-090AB,2026-06-20T06:55:42.739968,13.20770701,.0001962,87.9191,273.8224,96.5067,263.6290,0,U,49304,999,23019,.16427E-3,.8E-6,0
ONEWEB-0379,2021-090AC,2026-06-20T07:27:43.450848,13.14503076,.0001904,87.8967,289.0853,97.0243,263.1103,0,U,49305,999,22797,.66796E-3,.26E-5,0
ONEWEB-0380,2021-090AD,2026-06-20T08:51:59.626368,13.19725244,.0002071,87.9174,304.3373,96.8283,263.3085,0,U,49306,999,22684,.12544E-3,.63E-6,0
ONEWEB-0381,2021-090AE,2026-06-20T08:10:40.039680,13.20771965,.000203,87.9199,273.8119,92.3344,267.8022,0,U,49307,999,23024,-.10486E-3,-.3E-6,0
ONEWEB-0382,2021-090AF,2026-06-20T07:51:15.887808,13.20770393,.000196,87.9197,273.8088,91.5678,268.5680,0,U,49308,999,23023,.14689E-3,.73E-6,0
ONEWEB-0383,2021-090AG,2026-06-20T09:08:11.374944,13.14501838,.0001883,87.8971,289.0632,98.3478,261.7865,0,U,49309,999,22801,.30216E-3,.125E-5,0
ONEWEB-0384,2021-090AH,2026-06-20T07:34:46.206048,13.20812320,.0001879,87.9200,273.8548,87.0097,273.1251,0,U,49310,999,23024,.14078E-3,.7E-6,0
ONEWEB-0385,2021-090AJ,2026-06-20T07:41:34.362240,13.20773083,.0001976,87.9196,273.8155,94.4536,265.6823,0,U,49311,999,23021,.37078E-4,.28E-6,0
ONEWEB-0386,2021-090AK,2026-06-20T08:05:49.291584,13.20771864,.0001895,87.9201,273.8031,93.0092,267.1258,0,U,49312,999,23023,-.17587E-4,.6E-7,0
ONEWEB-0387,2021-090AL,2026-06-20T07:43:59.956608,13.20772555,.0002285,87.9185,273.8279,94.4378,265.7017,0,U,49313,999,23023,.28717E-4,.25E-6,0
ONEWEB-0388,2021-090AM,2026-06-20T08:45:10.135296,13.19725363,.0001853,87.9174,304.3363,94.8027,265.3317,0,U,49314,999,22683,.98614E-4,.52E-6,0
ONEWEB-0389,2021-132A,2026-06-19T22:22:41.107008,13.17649164,.00021431,87.9130,5.3217,81.8061,278.3314,0,U,50469,999,21844,.25173733E-4,.23E-6,0
ONEWEB-0390,2021-132B,2026-06-19T22:25:06.883680,13.17649559,.00020137,87.9131,5.3224,93.7842,266.3520,0,U,50470,999,21844,.63359581E-4,.37E-6,0
ONEWEB-0391,2021-132C,2026-06-20T11:12:58.958784,13.17649342,.0002642,87.9132,5.2258,82.4452,277.6979,0,U,50471,999,21851,.17517E-3,.81E-6,0
ONEWEB-0392,2021-132D,2026-06-20T06:28:41.111328,13.17655295,.0002371,87.9142,5.2339,85.7436,274.3966,0,U,50472,999,21852,-.31094E-2,-.1194E-4,0
ONEWEB-0393,2021-132E,2026-06-19T22:36:02.680416,13.17650394,.00019938,87.9134,5.3158,84.5803,275.5556,0,U,50473,999,21847,-.41998381E-4,-.3E-7,0
ONEWEB-0394,2021-132F,2026-06-20T10:28:49.450944,13.18687610,.0001789,87.9174,334.7953,88.9922,271.1415,0,U,50474,999,22202,.58519E-4,.36E-6,0
ONEWEB-0395,2021-132G,2026-06-20T07:05:05.436384,13.11413200,.0002099,87.8889,20.4484,86.3514,273.7854,0,U,50475,999,21612,-.19309E-3,-.56E-6,0
ONEWEB-0396,2021-132H,2026-06-20T08:29:50.331264,13.18684926,.0001916,87.9173,334.8245,88.2490,271.8862,0,U,50476,999,22205,.18568E-4,.2E-6,0
ONEWEB-0397,2021-132J,2026-06-20T10:40:57.315648,13.18685646,.0001818,87.9172,334.8064,85.9058,274.2282,0,U,50477,999,22204,.14688E-5,.13E-6,0
